satname,norad_id,inclination_deg,eccentricity,mean_motion_rev_per_day,perigee_km,apogee_km,l1,l2
STARLINK-1522,46027,53.0536,0.0001202,15.063872,546.4183567603641,548.0832199846891,1 46027U 20055A   26031.74050622  .00002505  00000+0  18705-3 0  9994,2 46027  53.0536 292.4882 0001202  83.8496 276.2630 15.06387200303319
STARLINK-1523,46028,53.0568,0.0001804,15.06393178,545.9831298128856,548.4818031163868,1 46028U 20055B   26031.68890706 -.00003773  00000+0 -23457-3 0  9993,2 46028  53.0568 292.7210 0001804  91.9934 268.1261 15.06393178303320
STARLINK-1526,46029,53.0571,0.0001562,15.06392179,546.1537850916375,548.3172714694729,1 46029U 20055C   26031.74789867  .00001016  00000+0  87114-4 0  9993,2 46029  53.0571 292.4545 0001562  95.9735 264.1432 15.06392179303323
STARLINK-1555,46032,53.0541,0.0001881,15.06392569,545.9316706289083,548.5369953243735,1 46032U 20055F   26031.73314440  .00000995  00000+0  85712-4 0  9994,2 46032  53.0541 292.5236 0001881  98.2666 261.8536 15.06392569303327
STARLINK-1556,46033,53.0533,0.0001953,15.06408057,545.8343487530219,548.5393802544959,1 46033U 20055G   26031.71471204  .00002207  00000+0  16699-3 0  9990,2 46033  53.0533 292.6076 0001953  87.7152 272.4061 15.06408057303292
STARLINK-1557,46034,53.0546,0.0001608,15.06407842,546.0739312586293,548.3011156253679,1 46034U 20055H   26031.71840236  .00004291  00000+0  30670-3 0  9996,2 46034  53.0546 292.5881 0001608  90.5795 269.5378 15.06407842303291
STARLINK-1558,46035,53.0535,0.0001487,15.06394382,546.1989744617058,548.2585782435926,1 46035U 20055J   26031.46038067  .00000408  00000+0  46292-4 0  9994,2 46035  53.0535 293.7491 0001487  73.1968 286.9183 15.06394382303284
STARLINK-1560,46036,53.0533,0.0001336,15.06395689,546.2995422313425,548.149998896437,1 46036U 20055K   26031.71103471  .00002891  00000+0  21289-3 0  9991,2 46036  53.0533 292.6228 0001336  88.5397 271.5745 15.06395689303328
STARLINK-1567,46038,53.0539,0.0001454,15.06404161,546.1918612758654,548.2057489279896,1 46038U 20055M   26030.99226439  .00002022  00000+0  15460-3 0  9992,2 46038  53.0539 295.8471 0001454  82.1177 277.9977 15.06404161303208
STARLINK-1569,46039,53.053,0.0001547,15.06381883,546.1957244785808,548.3384445023221,1 46039U 20055N   26031.72945857  .00003277  00000+0  23891-3 0  9997,2 46039  53.0530 292.5383 0001547  97.2973 262.8192 15.06381883303319
STARLINK-1582,46043,53.0536,0.0001329,15.06390267,546.3210055542722,548.1617711298941,1 46043U 20055S   26031.73683161 -.00000056  00000+0  15126-4 0  9996,2 46043  53.0536 292.5046 0001329  92.0286 268.0856 15.06390267303315
STARLINK-1591,46045,53.0543,0.0001412,15.06397191,546.2423067000864,548.1980275640854,1 46045U 20055U   26031.43090196  .00001457  00000+0  11668-3 0  9996,2 46045  53.0543 293.8799 0001412  98.1410 261.9739 15.06397191303251
STARLINK-1524,46047,53.0546,0.0001506,15.06378789,546.2336000778987,548.3195346443872,1 46047U 20055W   26031.84833862  .00003203  00000+0  23396-3 0  9990,2 46047  53.0546 282.0046 0001506  86.2947 273.8214 15.06378789303474
STARLINK-1527,46048,53.0538,0.0001394,15.06402143,546.2395972863105,548.1703826331113,1 46048U 20055X   26031.84463567  .00000928  00000+0  81191-4 0  9991,2 46048  53.0538 282.0214 0001394  82.4543 277.6605 15.06402143303454
STARLINK-1540,46051,53.0534,0.000154,15.06391368,546.1715061492332,548.3045216535147,1 46051U 20055AA  26031.67877156 -.00002062  00000+0 -11956-3 0  9993,2 46051  53.0534 282.7645 0001540  91.5673 268.5492 15.06391368303467
STARLINK-1541,46052,53.0552,0.0001368,15.06389905,546.2951059168117,548.1898897474184,1 46052U 20055AB  26031.13325636 -.00001699  00000+0 -95244-4 0  9994,2 46052  53.0552 285.2162 0001368  90.1132 270.0014 15.06389905303342
STARLINK-1543,46053,53.0546,0.000114,15.06389376,546.4546257119255,548.0336126070924,1 46053U 20055AC  26031.66772587  .00001358  00000+0  11007-3 0  9998,2 46053  53.0546 282.8111 0001140  62.5416 297.5689 15.06389376303455
STARLINK-1548,46054,53.0536,0.0001369,15.06386652,546.3043821197343,548.2005537560553,1 46054U 20055AD  26031.67508998  .00000766  00000+0  70344-4 0  9995,2 46054  53.0536 282.7820 0001369  88.6329 271.4817 15.06386652303454
STARLINK-1554,46055,53.0542,0.0001421,15.06393522,546.2473172950586,548.2155069977907,1 46055U 20055AE  26031.72669094 -.00001168  00000+0 -59514-4 0  9992,2 46055  53.0542 282.5514 0001421  88.4066 271.7085 15.06393522303460
STARLINK-1564,46058,53.0542,0.0001442,15.06389838,546.2440634265686,548.2413429329654,1 46058U 20055AH  26031.67145625  .00001648  00000+0  12957-3 0  9998,2 46058  53.0542 283.2606 0001442  91.7581 268.3573 15.06389838303442
STARLINK-1570,46059,53.0527,0.0001602,15.06394131,546.1201019157761,548.3389893569984,1 46059U 20055AJ  26031.83358776  .00000304  00000+0  39281-4 0  9998,2 46059  53.0527 282.0735 0001602  79.8085 280.3084 15.06394131303432
STARLINK-1572,46060,53.0532,0.0001343,15.06403811,546.2698050540985,548.1299505394745,1 46060U 20055AK  26031.82988287  .00014957  00000+0  10207-2 0  9999,2 46060  53.0532 282.0869 0001343 103.1005 257.0134 15.06403811303447
STARLINK-1573,46061,53.0539,0.0001352,15.0641061,546.2427372786497,548.1153427358668,1 46061U 20055AL  26030.96370213  .00003677  00000+0  26556-3 0  9990,2 46061  53.0539 286.0140 0001352  90.0823 270.0321 15.06410610303340
STARLINK-1577,46063,53.0539,0.0001482,15.06401318,546.181182403413,548.2338545186849,1 46063U 20055AN  26031.71931441  .00002572  00000+0  19152-3 0  9999,2 46063  53.0539 282.5838 0001482  89.5894 270.5265 15.06401318303451
STARLINK-1583,46064,53.0532,0.0001627,15.06389542,546.1168509621739,548.3703698127929,1 46064U 20055AP  26031.68614661  .00000020  00000+0  20235-4 0  9999,2 46064  53.0532 282.7337 0001627  90.6713 269.4462 15.06389542303455
STARLINK-1525,46066,53.0548,0.0001253,15.06392875,546.3656462126528,548.1011440336706,1 46066U 20055AR  26031.81699239  .00001402  00000+0  11300-3 0  9997,2 46066  53.0548 262.1449 0001253  87.8999 272.2133 15.06392875303741
STARLINK-1536,46070,53.0543,0.0001576,15.06394396,546.1372958048087,548.3201710839903,1 46070U 20055AV  26031.79487792 -.00000554  00000+0 -18291-4 0  9994,2 46070  53.0543 262.2412 0001576  88.0979 272.0191 15.06394396303754
STARLINK-1542,46073,53.054,0.0001272,15.06391348,546.3571674895138,548.1189829086452,1 46073U 20055AY  26031.78751141 -.00001753  00000+0 -98878-4 0  9999,2 46073  53.0540 262.2751 0001272  95.0160 265.0974 15.06391348303747
